{
  "norad_id": 69045,
  "name": "STARLINK-37667",
  "history": [
    {
      "epoch": "2026-05-13T20:00:01.999008Z",
      "apogee_km": 312.34472260422535,
      "perigee_km": 310.5198081086364,
      "latitude_deg": -39.115876363757934,
      "longitude_deg": -177.63356229796148,
      "height_km": 327.1758584113783,
      "semi_major_axis_km": 6689.569265356431,
      "eccentricity": 0.0001364,
      "inclination_deg": 97.2883,
      "raan_deg": 348.027,
      "arg_perigee_deg": 99.3402,
      "mean_anomaly_deg": 221.4599,
      "mean_motion_rev_day": 15.86739122
    }
  ]
}