[ {"name": "STARLINK-37667", "line1": "1 69045U 26101W   26133.83335647 -.01857282  00000+0 -85502-2 0  9994", "line2": "2 69045  97.2883 348.0270 0001364  99.3402 221.4599 15.86739122  2444"}]